[{"OBJECT_NAME":"STARLINK-32615","OBJECT_ID":"2024-216C","EPOCH":"2026-03-09T19:35:17.856960","MEAN_MOTION":15.2755379,"ECCENTRICITY":0.00029463,"INCLINATION":43.0001,"RA_OF_ASC_NODE":255.7206,"ARG_OF_PERICENTER":281.4764,"MEAN_ANOMALY":78.5756,"EPHEMERIS_TYPE":0,"CLASSIFICATION_TYPE":"U","NORAD_CAT_ID":62034,"ELEMENT_SET_NO":999,"REV_AT_EPOCH":7273,"BSTAR":0.00067424079,"MEAN_MOTION_DOT":0.00018324,"MEAN_MOTION_DDOT":0},{"OBJECT_NAME":"STARLINK-36554","OBJECT_ID":"2026-012K","EPOCH":"2026-03-08T17:06:15.871680","MEAN_MOTION":15.27591469,"ECCENTRICITY":6.955e-5,"INCLINATION":42.9934,"RA_OF_ASC_NODE":319.8184,"ARG_OF_PERICENTER":339.2059,"MEAN_ANOMALY":20.8765,"EPHEMERIS_TYPE":0,"CLASSIFICATION_TYPE":"U","NORAD_CAT_ID":67502,"ELEMENT_SET_NO":999,"REV_AT_EPOCH":761,"BSTAR":0.0011969118,"MEAN_MOTION_DOT":0.00032833,"MEAN_MOTION_DDOT":0}]
