STARLINK-32615          
1 62034U 24216C   26068.81617889  .00018324  00000+0  67424-3 0  9993
2 62034  43.0001 255.7206 0002946 281.4764  78.5756 15.27553790 72736
STARLINK-36554          
1 67502U 26012K   26067.71268370  .00032833  00000+0  11969-2 0  9992
2 67502  42.9934 319.8184 0000695 339.2059  20.8765 15.27591469  7619
